{
  "type": "FeatureCollection",
  "features": [
    {
      "type": "Feature",
      "properties": {
        "norad_id": 32376,
        "name": "COSMO-SKYMED 2",
        "group": "resource",
        "lat": -58.53493329269721,
        "lon": -12.780904955389069,
        "alt_km": 630.4972357591614,
        "timestamp": "2025-12-25T03:55:55.962860+00:00",
        "meta_object_name": "COSMO-SKYMED 2",
        "meta_object_id": "2007-059A",
        "meta_epoch": "2025-12-24T20:22:28.206048",
        "meta_mean_motion": 14.82156948,
        "meta_eccentricity": 0.000131,
        "meta_inclination": 97.8805,
        "meta_ra_of_asc_node": 179.9904,
        "meta_arg_of_pericenter": 82.4495,
        "meta_mean_anomaly": 277.6867,
        "meta_ephemeris_type": 0,
        "meta_classification_type": "U",
        "meta_norad_cat_id": 32376,
        "meta_element_set_no": 999,
        "meta_rev_at_epoch": 97617,
        "meta_bstar": 7.2735e-05,
        "meta_mean_motion_dot": 5.27e-06,
        "meta_mean_motion_ddot": 0,
        "tle_line1": "1 32376U 07059A   25358.84893757  .00000527  00000+0  72735-4 0  9997",
        "tle_line2": "2 32376  97.8805 179.9904 0001310  82.4495 277.6867 14.82156948976177"
      },
      "geometry": {
        "type": "Point",
        "coordinates": [
          -12.780904955389069,
          -58.53493329269721
        ]
      }
    },
    {
      "type": "Feature",
      "properties": {
        "norad_id": 32382,
        "name": "RADARSAT-2",
        "group": "resource",
        "lat": 18.50539378914716,
        "lon": 0.6764709805420788,
        "alt_km": 791.7016048465784,
        "timestamp": "2025-12-25T03:55:55.962870+00:00",
        "meta_object_name": "RADARSAT-2",
        "meta_object_id": "2007-061A",
        "meta_epoch": "2025-12-24T21:07:39.825120",
        "meta_mean_motion": 14.29983981,
        "meta_eccentricity": 0.0001131,
        "meta_inclination": 98.5795,
        "meta_ra_of_asc_node": 3.2934,
        "meta_arg_of_pericenter": 85.5021,
        "meta_mean_anomaly": 274.629,
        "meta_ephemeris_type": 0,
        "meta_classification_type": "U",
        "meta_norad_cat_id": 32382,
        "meta_element_set_no": 999,
        "meta_rev_at_epoch": 94104,
        "meta_bstar": -6.7598e-05,
        "meta_mean_motion_dot": -2.18e-06,
        "meta_mean_motion_ddot": 0,
        "tle_line1": "1 32382U 07061A   25358.88032205 -.00000218  00000+0 -67598-4 0  9994",
        "tle_line2": "2 32382  98.5795   3.2934 0001131  85.5021 274.6290 14.29983981941043"
      },
      "geometry": {
        "type": "Point",
        "coordinates": [
          0.6764709805420788,
          18.50539378914716
        ]
      }
    },
    {
      "type": "Feature",
      "properties": {
        "norad_id": 32783,
        "name": "CARTOSAT-2A",
        "group": "resource",
        "lat": -54.925762566804835,
        "lon": -142.646470631707,
        "alt_km": 639.3656717075637,
        "timestamp": "2025-12-25T03:55:55.962882+00:00",
        "meta_object_name": "CARTOSAT-2A",
        "meta_object_id": "2008-021A",
        "meta_epoch": "2025-12-24T20:22:26.657760",
        "meta_mean_motion": 14.78953502,
        "meta_eccentricity": 0.0010979,
        "meta_inclination": 97.7909,
        "meta_ra_of_asc_node": 48.2929,
        "meta_arg_of_pericenter": 324.4,
        "meta_mean_anomaly": 35.6478,
        "meta_ephemeris_type": 0,
        "meta_classification_type": "U",
        "meta_norad_cat_id": 32783,
        "meta_element_set_no": 999,
        "meta_rev_at_epoch": 95303,
        "meta_bstar": 0.00014682,
        "meta_mean_motion_dot": 1.034e-05,
        "meta_mean_motion_ddot": 0,
        "tle_line1": "1 32783U 08021A   25358.84891965  .00001034  00000+0  14682-3 0  9998",
        "tle_line2": "2 32783  97.7909  48.2929 0010979 324.4000  35.6478 14.78953502953036"
      },
      "geometry": {
        "type": "Point",
        "coordinates": [
          -142.646470631707,
          -54.925762566804835
        ]
      }
    },
    {
      "type": "Feature",
      "properties": {
        "norad_id": 33320,
        "name": "HUANJING 1A (HJ-1A)",
        "group": "resource",
        "lat": -58.89113974695852,
        "lon": -0.17847871365703727,
        "alt_km": 617.8091645470731,
        "timestamp": "2025-12-25T03:55:55.962893+00:00",
        "meta_object_name": "HUANJING 1A (HJ-1A)",
        "meta_object_id": "2008-041A",
        "meta_epoch": "2025-12-24T21:43:29.358624",
        "meta_mean_motion": 14.83429214,
        "meta_eccentricity": 0.0019219,
        "meta_inclination": 97.6549,
        "meta_ra_of_asc_node": 346.6956,
        "meta_arg_of_pericenter": 355.5521,
        "meta_mean_anomaly": 4.5519,
        "meta_ephemeris_type": 0,
        "meta_classification_type": "U",
        "meta_norad_cat_id": 33320,
        "meta_element_set_no": 999,
        "meta_rev_at_epoch": 93256,
        "meta_bstar": 0.00014105,
        "meta_mean_motion_dot": 1.11e-05,
        "meta_mean_motion_ddot": 0,
        "tle_line1": "1 33320U 08041A   25358.90520091  .00001110  00000+0  14105-3 0  9999",
        "tle_line2": "2 33320  97.6549 346.6956 0019219 355.5521   4.5519 14.83429214932567"
      },
      "geometry": {
        "type": "Point",
        "coordinates": [
          -0.17847871365703727,
          -58.89113974695852
        ]
      }
    },
    {
      "type": "Feature",
      "properties": {
        "norad_id": 33321,
        "name": "HUANJING 1B (HJ-1B)",
        "group": "resource",
        "lat": 43.171192040042826,
        "lon": 177.84229913850245,
        "alt_km": 621.2246151896461,
        "timestamp": "2025-12-25T03:55:55.962904+00:00",
        "meta_object_name": "HUANJING 1B (HJ-1B)",
        "meta_object_id": "2008-041B",
        "meta_epoch": "2025-12-24T20:50:41.493984",
        "meta_mean_motion": 14.82851635,
        "meta_eccentricity": 0.0037699,
        "meta_inclination": 97.6405,
        "meta_ra_of_asc_node": 350.3255,
        "meta_arg_of_pericenter": 37.3201,
        "meta_mean_anomaly": 323.0621,
        "meta_ephemeris_type": 0,
        "meta_classification_type": "U",
        "meta_norad_cat_id": 33321,
        "meta_element_set_no": 999,
        "meta_rev_at_epoch": 93257,
        "meta_bstar": 0.0001777,
        "meta_mean_motion_dot": 1.405e-05,
        "meta_mean_motion_ddot": 0,
        "tle_line1": "1 33321U 08041B   25358.86853581  .00001405  00000+0  17770-3 0  9996",
        "tle_line2": "2 33321  97.6405 350.3255 0037699  37.3201 323.0621 14.82851635932574"
      },
      "geometry": {
        "type": "Point",
        "coordinates": [
          177.84229913850245,
          43.171192040042826
        ]
      }
    },
    {
      "type": "Feature",
      "properties": {
        "norad_id": 33331,
        "name": "GEOEYE 1",
        "group": "resource",
        "lat": 33.29360420874895,
        "lon": 64.9046743338249,
        "alt_km": 677.9432283313372,
        "timestamp": "2025-12-25T03:55:55.962915+00:00",
        "meta_object_name": "GEOEYE 1",
        "meta_object_id": "2008-042A",
        "meta_epoch": "2025-12-24T19:34:52.591872",
        "meta_mean_motion": 14.6471583,
        "meta_eccentricity": 0.0002984,
        "meta_inclination": 98.1237,
        "meta_ra_of_asc_node": 69.9437,
        "meta_arg_of_pericenter": 232.3946,
        "meta_mean_anomaly": 127.6986,
        "meta_ephemeris_type": 0,
        "meta_classification_type": "U",
        "meta_norad_cat_id": 33331,
        "meta_element_set_no": 999,
        "meta_rev_at_epoch": 92462,
        "meta_bstar": 0.00011647,
        "meta_mean_motion_dot": 5.73e-06,
        "meta_mean_motion_ddot": 0,
        "tle_line1": "1 33331U 08042A   25358.81588648  .00000573  00000+0  11647-3 0  9994",
        "tle_line2": "2 33331  98.1237  69.9437 0002984 232.3946 127.6986 14.64715830924626"
      },
      "geometry": {
        "type": "Point",
        "coordinates": [
          64.9046743338249,
          33.29360420874895
        ]
      }
    },
    {
      "type": "Feature",
      "properties": {
        "norad_id": 33396,
        "name": "THEOS",
        "group": "resource",
        "lat": 56.463354474412725,
        "lon": 43.7121848074632,
        "alt_km": 818.8742352630734,
        "timestamp": "2025-12-25T03:55:55.962925+00:00",
        "meta_object_name": "THEOS",
        "meta_object_id": "2008-049A",
        "meta_epoch": "2025-12-24T20:53:55.372992",
        "meta_mean_motion": 14.20098444,
        "meta_eccentricity": 0.0001198,
        "meta_inclination": 98.5845,
        "meta_ra_of_asc_node": 56.6015,
        "meta_arg_of_pericenter": 93.2794,
        "meta_mean_anomaly": 266.852,
        "meta_ephemeris_type": 0,
        "meta_classification_type": "U",
        "meta_norad_cat_id": 33396,
        "meta_element_set_no": 999,
        "meta_rev_at_epoch": 89322,
        "meta_bstar": 3.3142e-05,
        "meta_mean_motion_dot": 2.8e-07,
        "meta_mean_motion_ddot": 0,
        "tle_line1": "1 33396U 08049A   25358.87077978  .00000028  00000+0  33142-4 0  9997",
        "tle_line2": "2 33396  98.5845  56.6015 0001198  93.2794 266.8520 14.20098444893220"
      },
      "geometry": {
        "type": "Point",
        "coordinates": [
          43.7121848074632,
          56.463354474412725
        ]
      }
    }
  ]
}